start=new Date('2023-05-01T00:00:00.000Z').valueOf();
sats=[{"SITE":"AFWTR","PERIAPSIS":"557.950","RCS_SIZE":"LARGE","PERIOD":"95.847","INCLINATION":"97.6554","MEAN_ANOMALY":"187.1329","ARG_OF_PERICENTER":"91.1212","OBJECT_NAME":"STARLINK-4624","ECCENTRICITY":"0.00022810","ELEMENT_SET_NO":"999","EPOCH":"2023-04-30T14:00:01.000224","SEMIMAJOR_AXIS":"6937.667","BSTAR":"0.00098924000000","COUNTRY_CODE":"US","EPHEMERIS_TYPE":"0","CENTER_NAME":"EARTH","TIME_SYSTEM":"UTC","GP_ID":"230977663","OBJECT_TYPE":"PAYLOAD","OBJECT_ID":"2022-105AN","MEAN_MOTION_DDOT":"0.0000000000000","APOAPSIS":"561.115","TLE_LINE1":"1 53684U 22105AN  23120.58334491  .00013054  00000-0  98924-3 0  9999","LAUNCH_DATE":"2022-08-31","CLASSIFICATION_TYPE":"U","NORAD_CAT_ID":"53684","REF_FRAME":"TEME","RA_OF_ASC_NODE":"2.3363","FILE":"3897442","REV_AT_EPOCH":"130","TLE_LINE2":"2 53684  97.6554   2.3363 0002281  91.1212 187.1329 15.02389500  1308","MEAN_MOTION":"15.02389500","MEAN_MOTION_DOT":"0.00013054","DECAY_DATE":null,"MEAN_ELEMENT_THEORY":"SGP4"},{"PERIAPSIS":"560.833","SITE":"AFWTR","ARG_OF_PERICENTER":"93.2264","OBJECT_NAME":"STARLINK-4626","PERIOD":"95.919","INCLINATION":"97.6586","MEAN_ANOMALY":"266.9318","RCS_SIZE":"LARGE","BSTAR":"0.00007228200000","SEMIMAJOR_AXIS":"6941.140","ECCENTRICITY":"0.00031290","EPOCH":"2023-04-30T14:48:32.446944","ELEMENT_SET_NO":"999","EPHEMERIS_TYPE":"0","COUNTRY_CODE":"US","TIME_SYSTEM":"UTC","CENTER_NAME":"EARTH","NORAD_CAT_ID":"53685","TLE_LINE1":"1 53685U 22105AP  23120.61704221  .00000870  00000-0  72282-4 0  9998","LAUNCH_DATE":"2022-08-31","CLASSIFICATION_TYPE":"U","OBJECT_ID":"2022-105AP","MEAN_MOTION_DDOT":"0.0000000000000","APOAPSIS":"565.177","GP_ID":"230951692","OBJECT_TYPE":"PAYLOAD","REF_FRAME":"TEME","MEAN_ELEMENT_THEORY":"SGP4","MEAN_MOTION_DOT":"0.00000870","DECAY_DATE":null,"REV_AT_EPOCH":"3687","TLE_LINE2":"2 53685  97.6586   2.3720 0003129  93.2264 266.9318 15.01262113 36876","MEAN_MOTION":"15.01262113","RA_OF_ASC_NODE":"2.3720","FILE":"3897371"},{"REF_FRAME":"TEME","MEAN_MOTION_DOT":"0.00001967","DECAY_DATE":null,"MEAN_ELEMENT_THEORY":"SGP4","RA_OF_ASC_NODE":"2.3695","FILE":"3897371","TLE_LINE2":"2 53686  97.6582   2.3695 0004547  89.2271 270.9474 15.01262974 36875","REV_AT_EPOCH":"3687","MEAN_MOTION":"15.01262974","CENTER_NAME":"EARTH","TIME_SYSTEM":"UTC","LAUNCH_DATE":"2022-08-31","TLE_LINE1":"1 53686U 22105AQ  23120.61334401  .00001967  00000-0  15765-3 0  9998","CLASSIFICATION_TYPE":"U","NORAD_CAT_ID":"53686","GP_ID":"230951301","OBJECT_TYPE":"PAYLOAD","OBJECT_ID":"2022-105AQ","MEAN_MOTION_DDOT":"0.0000000000000","APOAPSIS":"566.159","BSTAR":"0.00015765000000","ECCENTRICITY":"0.00045470","EPOCH":"2023-04-30T14:43:12.922464","ELEMENT_SET_NO":"999","SEMIMAJOR_AXIS":"6941.138","COUNTRY_CODE":"US","EPHEMERIS_TYPE":"0","PERIAPSIS":"559.847","SITE":"AFWTR","ARG_OF_PERICENTER":"89.2271","OBJECT_NAME":"STARLINK-4467","RCS_SIZE":"LARGE","PERIOD":"95.919","INCLINATION":"97.6582","MEAN_ANOMALY":"270.9474"},{"ECCENTRICITY":"0.00037700","ELEMENT_SET_NO":"999","EPOCH":"2023-04-30T14:45:52.660512","SEMIMAJOR_AXIS":"6941.140","BSTAR":"0.00008205900000","COUNTRY_CODE":"US","EPHEMERIS_TYPE":"0","SITE":"AFWTR","PERIAPSIS":"560.388","RCS_SIZE":"LARGE","INCLINATION":"97.6584","PERIOD":"95.919","MEAN_ANOMALY":"275.1891","ARG_OF_PERICENTER":"84.9763","OBJECT_NAME":"STARLINK-4569","REF_FRAME":"TEME","RA_OF_ASC_NODE":"2.3716","FILE":"3897371","REV_AT_EPOCH":"3687","TLE_LINE2":"2 53687  97.6584   2.3716 0003770  84.9763 275.1891 15.01262293 36871","MEAN_MOTION":"15.01262293","MEAN_MOTION_DOT":"0.00000995","DECAY_DATE":null,"MEAN_ELEMENT_THEORY":"SGP4","TIME_SYSTEM":"UTC","CENTER_NAME":"EARTH","GP_ID":"230951295","OBJECT_TYPE":"PAYLOAD","OBJECT_ID":"2022-105AR","MEAN_MOTION_DDOT":"0.0000000000000","APOAPSIS":"565.622","CLASSIFICATION_TYPE":"U","TLE_LINE1":"1 53687U 22105AR  23120.61519283  .00000995  00000-0  82059-4 0  9993","LAUNCH_DATE":"2022-08-31","NORAD_CAT_ID":"53687"},{"BSTAR":"0.00003993000000","SEMIMAJOR_AXIS":"6941.142","ELEMENT_SET_NO":"999","EPOCH":"2023-04-30T13:01:54.071616","ECCENTRICITY":"0.00044940","EPHEMERIS_TYPE":"0","COUNTRY_CODE":"US","PERIAPSIS":"559.887","SITE":"AFWTR","OBJECT_NAME":"STARLINK-4571","ARG_OF_PERICENTER":"90.8521","MEAN_ANOMALY":"269.3218","PERIOD":"95.919","INCLINATION":"97.6565","RCS_SIZE":"LARGE","REF_FRAME":"TEME","MEAN_ELEMENT_THEORY":"SGP4","DECAY_DATE":null,"MEAN_MOTION_DOT":"0.00000454","MEAN_MOTION":"15.01261624","REV_AT_EPOCH":"3658","TLE_LINE2":"2 53688  97.6565   2.3005 0004494  90.8521 269.3218 15.01261624 36587","FILE":"3897442","RA_OF_ASC_NODE":"2.3005","TIME_SYSTEM":"UTC","CENTER_NAME":"EARTH","NORAD_CAT_ID":"53688","LAUNCH_DATE":"2022-08-31","TLE_LINE1":"1 53688U 22105AS  23120.54298694  .00000454  00000-0  39930-4 0  9996","CLASSIFICATION_TYPE":"U","APOAPSIS":"566.126","MEAN_MOTION_DDOT":"0.0000000000000","OBJECT_ID":"2022-105AS","OBJECT_TYPE":"PAYLOAD","GP_ID":"230978164"},{"REF_FRAME":"TEME","FILE":"3897371","RA_OF_ASC_NODE":"2.3681","MEAN_MOTION":"15.01263646","TLE_LINE2":"2 53689  97.6576   2.3681 0004066  91.0749 269.0941 15.01263646 36878","REV_AT_EPOCH":"3687","DECAY_DATE":null,"MEAN_MOTION_DOT":"0.00000631","MEAN_ELEMENT_THEORY":"SGP4","CENTER_NAME":"EARTH","TIME_SYSTEM":"UTC","OBJECT_TYPE":"PAYLOAD","GP_ID":"230951694","APOAPSIS":"565.823","MEAN_MOTION_DDOT":"0.0000000000000","OBJECT_ID":"2022-105AT","TLE_LINE1":"1 53689U 22105AT  23120.61148941  .00000631  00000-0  53716-4 0  9999","CLASSIFICATION_TYPE":"U","LAUNCH_DATE":"2022-08-31","NORAD_CAT_ID":"53689","EPOCH":"2023-04-30T14:40:32.685024","ELEMENT_SET_NO":"999","ECCENTRICITY":"0.00040660","SEMIMAJOR_AXIS":"6941.136","BSTAR":"0.00005371600000","COUNTRY_CODE":"US","EPHEMERIS_TYPE":"0","SITE":"AFWTR","PERIAPSIS":"560.178","RCS_SIZE":"LARGE","MEAN_ANOMALY":"269.0941","PERIOD":"95.919","INCLINATION":"97.6576","OBJECT_NAME":"STARLINK-4562","ARG_OF_PERICENTER":"91.0749"},{"LAUNCH_DATE":"2022-08-31","TLE_LINE1":"1 53690U 22105AU  23120.54113687  .00000351  00000-0  31969-4 0  9997","CLASSIFICATION_TYPE":"U","NORAD_CAT_ID":"53690","GP_ID":"230977163","OBJECT_TYPE":"PAYLOAD","OBJECT_ID":"2022-105AU","APOAPSIS":"566.571","MEAN_MOTION_DDOT":"0.0000000000000","TIME_SYSTEM":"UTC","CENTER_NAME":"EARTH","MEAN_MOTION_DOT":"0.00000351","DECAY_DATE":null,"MEAN_ELEMENT_THEORY":"SGP4","RA_OF_ASC_NODE":"2.2982","FILE":"3897442","REV_AT_EPOCH":"3658","TLE_LINE2":"2 53690  97.6558   2.2982 0005130  83.3249 276.8559 15.01260635 36589","MEAN_MOTION":"15.01260635","REF_FRAME":"TEME","ARG_OF_PERICENTER":"83.3249","OBJECT_NAME":"STARLINK-4570","RCS_SIZE":"LARGE","PERIOD":"95.919","INCLINATION":"97.6558","MEAN_ANOMALY":"276.8559","PERIAPSIS":"559.449","SITE":"AFWTR","COUNTRY_CODE":"US","EPHEMERIS_TYPE":"0","BSTAR":"0.00003196900000","ECCENTRICITY":"0.00051300","EPOCH":"2023-04-30T12:59:14.225568","ELEMENT_SET_NO":"999","SEMIMAJOR_AXIS":"6941.145"},{"EPHEMERIS_TYPE":"0","COUNTRY_CODE":"US","SEMIMAJOR_AXIS":"6943.629","ECCENTRICITY":"0.00022890","ELEMENT_SET_NO":"999","EPOCH":"2023-04-30T16:00:00.999936","BSTAR":"-0.00090796000000","PERIOD":"95.971","INCLINATION":"97.6562","MEAN_ANOMALY":"212.5984","RCS_SIZE":"LARGE","ARG_OF_PERICENTER":"98.0797","OBJECT_NAME":"STARLINK-4560","SITE":"AFWTR","PERIAPSIS":"563.905","TLE_LINE2":"2 53691  97.6562   2.4195 0002289  98.0797 212.5984 15.00454986 36881","REV_AT_EPOCH":"3688","MEAN_MOTION":"15.00454986","RA_OF_ASC_NODE":"2.4195","FILE":"3897358","MEAN_ELEMENT_THEORY":"SGP4","MEAN_MOTION_DOT":"-0.00011459","DECAY_DATE":null,"REF_FRAME":"TEME","OBJECT_ID":"2022-105AV","APOAPSIS":"567.084","MEAN_MOTION_DDOT":"0.0000000000000","GP_ID":"230951316","OBJECT_TYPE":"PAYLOAD","NORAD_CAT_ID":"53691","TLE_LINE1":"1 53691U 22105AV  23120.66667824 -.00011459  00000-0 -90796-3 0  9993","CLASSIFICATION_TYPE":"U","LAUNCH_DATE":"2022-08-31","TIME_SYSTEM":"UTC","CENTER_NAME":"EARTH"},{"TIME_SYSTEM":"UTC","CENTER_NAME":"EARTH","NORAD_CAT_ID":"53692","TLE_LINE1":"1 53692U 22105AW  23120.60593800  .00000449  00000-0  39536-4 0  9991","LAUNCH_DATE":"2022-08-31","CLASSIFICATION_TYPE":"U","OBJECT_ID":"2022-105AW","APOAPSIS":"566.944","MEAN_MOTION_DDOT":"0.0000000000000","GP_ID":"230952017","OBJECT_TYPE":"PAYLOAD","REF_FRAME":"TEME","MEAN_ELEMENT_THEORY":"SGP4","MEAN_MOTION_DOT":"0.00000449","DECAY_DATE":null,"REV_AT_EPOCH":"3687","TLE_LINE2":"2 53692  97.6553   2.3598 0005661  68.2639 291.9187 15.01259096 36870","MEAN_MOTION":"15.01259096","RA_OF_ASC_NODE":"2.3598","FILE":"3897384","PERIAPSIS":"559.085","SITE":"AFWTR","ARG_OF_PERICENTER":"68.2639","OBJECT_NAME":"STARLINK-4572","PERIOD":"95.919","INCLINATION":"97.6553","MEAN_ANOMALY":"291.9187","RCS_SIZE":"LARGE","BSTAR":"0.00003953600000","SEMIMAJOR_AXIS":"6941.150","ECCENTRICITY":"0.00056610","EPOCH":"2023-04-30T14:32:33.043200","ELEMENT_SET_NO":"999","EPHEMERIS_TYPE":"0","COUNTRY_CODE":"US"},{"TIME_SYSTEM":"UTC","CENTER_NAME":"EARTH","NORAD_CAT_ID":"53693","TLE_LINE1":"1 53693U 22105AX  23120.60408641 -.00000029  00000-0  23651-5 0  9997","LAUNCH_DATE":"2022-08-31","CLASSIFICATION_TYPE":"U","OBJECT_ID":"2022-105AX","APOAPSIS":"566.864","MEAN_MOTION_DDOT":"0.0000000000000","GP_ID":"230951705","OBJECT_TYPE":"PAYLOAD","REF_FRAME":"TEME","MEAN_ELEMENT_THEORY":"SGP4","MEAN_MOTION_DOT":"-0.00000029","DECAY_DATE":null,"TLE_LINE2":"2 53693  97.6550   2.3550 0005547  62.2847 297.8940 15.01259491 36875","REV_AT_EPOCH":"3687","MEAN_MOTION":"15.01259491","RA_OF_ASC_NODE":"2.3550","FILE":"3897358","PERIAPSIS":"559.163","SITE":"AFWTR","ARG_OF_PERICENTER":"62.2847","OBJECT_NAME":"STARLINK-4566","INCLINATION":"97.6550","PERIOD":"95.919","MEAN_ANOMALY":"297.8940","RCS_SIZE":"LARGE","BSTAR":"0.00000236510000","SEMIMAJOR_AXIS":"6941.148","ECCENTRICITY":"0.00055470","ELEMENT_SET_NO":"999","EPOCH":"2023-04-30T14:29:53.065824","EPHEMERIS_TYPE":"0","COUNTRY_CODE":"US"}];
